LANDSAT 9               
1 49260U 21088A   24151.17935503  .00000610  00000+0  14545-3 0  9994
2 49260  98.1874 221.1027 0001022  83.7895 276.3420 14.57108627142079
